HAIYANG-1B              
1 31113U 07010A   26185.20531475  .00000113  00000+0  58815-4 0  9991
2 31113  98.3505 166.3911 0014118 146.3401 213.8683 14.31031222  3072
GOSAT (IBUKI)           
1 33492U 09002A   26185.59298968  .00000290  00000+0  59651-4 0  9990
2 33492  98.0905 296.4573 0001270  82.4342 277.7007 14.67540265934010
HAIYANG-2A              
1 37781U 11043A   26185.58611039 -.00000082  00000+0 -41168-4 0  9995
2 37781  99.3394 187.8696 0004183  57.8163 302.3391 13.73780507749042
GOKTURK 2               
1 39030U 12073A   26185.57645554  .00000499  00000+0  80153-4 0  9993
2 39030  97.6809  22.1352 0000950  68.0719 292.0592 14.75560262727076
GPM-CORE                
1 39574U 14009C   26185.55986475  .00018961  00000+0  40400-3 0  9998
2 39574  64.9705 249.9296 0011212 258.4363 101.5520 15.44944855700493
GOKTURK 1A              
1 41875U 16073A   26185.62028309  .00000293  00000+0  66554-4 0  9997
2 41875  98.1228  80.0198 0001388  79.4982 280.6376 14.62786980511372
GOES 17                 
1 43226U 18022A   26185.56094191 -.00000170  00000+0  00000+0 0  9994
2 43226   0.9785  85.4405 0000703  51.4573 258.1135  1.00271170 30590
GOES 18                 
1 51850U 22021A   26185.51086661  .00000109  00000+0  00000+0 0  9999
2 51850   0.0415 221.7763 0000592 303.1764 164.4734  1.00270988  6762
GOES 19                 
1 60133U 24119A   26185.49248830 -.00000236  00000+0  00000+0 0  9990
2 60133   0.0019 231.4182 0000571 297.0200 216.1632  1.00270348  7136
GOSAT-GW (IBUKI GW)     
1 64694U 25141A   26185.57641917  .00001020  00000+0  18819-3 0  9996
2 64694  98.0567 122.6109 0001445  85.2618 274.8752 14.67559273 54396
